satname,norad_id,inclination_deg,eccentricity,mean_motion_rev_per_day,perigee_km,apogee_km,l1,l2
STARLINK-1008,44714,53.1519,0.0002264,15.50337502,414.2017574955498,417.27802495189553,1 44714U 19074B   26169.92279014  .00054451  00000+0  94534-3 0  9995,2 44714  53.1519  60.4181 0002264 140.6690 219.4484 15.50337502364484
STARLINK-1012,44718,53.1555,0.0002164,15.5064516,413.3712283569157,416.31122933435927,1 44718U 19074F   26169.98317837  .00056320  00000+0  96673-3 0  9994,2 44718  53.1555  60.3961 0002164 152.7617 207.3506 15.50645160364488
STARLINK-1017,44723,53.0474,0.0004458,15.32279121,465.9617493915639,472.06666940986634,1 44723U 19074L   26169.96635652  .00032948  00000+0  10494-2 0  9992,2 44723  53.0474  61.1381 0004458  75.4217 284.7277 15.32279121364454
STARLINK-1020,44725,53.157,0.0004302,15.56009398,396.30440128561895,402.1356392658654,1 44725U 19074N   26169.77482312  .00060911  00000+0  85994-3 0  9995,2 44725  53.1570  85.0336 0004302 116.5779 243.5675 15.56009398364107
STARLINK-1036,44741,53.0428,0.0002935,15.70380807,355.8308410929503,359.78484071456023,1 44741U 19074AE  26169.93208938  .00046323  00000+0  37443-3 0  9998,2 44741  53.0428  52.0464 0002935  33.6434 326.4769 15.70380807364578
STARLINK-1039,44744,53.0606,0.0004137,15.29337189,474.9561806262491,480.6287766768846,1 44744U 19074AH  26169.55948192  .00030871  00000+0  10781-2 0  9998,2 44744  53.0606 108.6608 0004137  78.9459 281.2005 15.29337189363751
STARLINK-1042,44747,53.0438,0.000205,15.54681946,401.68718177124447,404.4674796468362,1 44747U 19074AL  26169.73364289  .00019703  00000+0  29844-3 0  9992,2 44747  53.0438 328.1506 0002050 116.7625 243.3595 15.54681946365768
STARLINK-1043,44748,53.0492,7.4e-05,15.63317621,377.58163536381926,378.58155571595853,1 44748U 19074AM  26169.44016981  .00031079  00000+0  33648-3 0  9991,2 44748  53.0492  65.2806 0000740 108.9780 251.1314 15.63317621364356
STARLINK-1046,44751,53.0469,0.0006541,15.56308764,393.91837954715993,402.7833809921285,1 44751U 19074AQ  26169.97386014  .00078362  00000+0  10892-2 0  9991,2 44751  53.0469  84.8595 0006541  99.1262 261.0489 15.56308764364125
STARLINK-1047,44752,53.0693,0.000333,15.34729769,459.4455992804287,464.00094622208144,1 44752U 19074AR  26169.89412571  .00006691  00000+0  20686-3 0  9990,2 44752  53.0693  32.4243 0003330 136.1057 224.0210 15.34729769364872
STARLINK-1048,44753,53.0457,0.0006197,15.68417364,359.2505721069401,367.6060681647159,1 44753U 19074AS  26169.55629593  .00056190  00000+0  49044-3 0  9996,2 44753  53.0457  36.0678 0006197  91.6420 268.5305 15.68417364364764
STARLINK-1063,44768,53.1549,0.0002352,15.50255746,414.3807726993673,417.5767247475678,1 44768U 19074BH  26169.93590198  .00047137  00000+0  82256-3 0  9995,2 44768  53.1549 101.3890 0002352 106.4455 253.6813 15.50255746363928
STARLINK-1067,44771,53.0431,0.000155,15.7865924,333.198089445159,335.278925852529,1 44771U 19074BL  26169.92541999  .00079599  00000+0  44571-3 0  9998,2 44771  53.0431  65.2503 0001550 177.9230 182.1797 15.78659240364399
STARLINK-1068,44772,53.041,0.0001959,15.76971568,337.7108092258741,340.3425939641593,1 44772U 19074BM  26169.94480016  .00064548  00000+0  39110-3 0  9994,2 44772  53.0410  38.9738 0001959 198.7012 161.3936 15.76971568364758
STARLINK-1114,44927,53.0389,0.0005347,15.66110324,366.43911638007376,373.6556247459539,1 44927U 20001P   26169.90716421  .00030832  00000+0  29885-3 0  9993,2 44927  53.0389 197.0502 0005347  29.2193 330.9120 15.66110324355881
STARLINK-1123,44930,53.1418,0.0007854,15.59788527,382.9542605183442,393.5829304277131,1 44930U 20001S   26169.86593441  .00062521  00000+0  76512-3 0  9996,2 44930  53.1418 224.9143 0007854 349.8984  10.1870 15.59788527355500
STARLINK-1094,44941,53.1507,0.0007778,15.55498045,395.43267681567704,405.97784383584076,1 44941U 20001AD  26169.91757121  .00060126  00000+0  86444-3 0  9995,2 44941  53.1507 200.0160 0007778  12.4207 347.6995 15.55498045355865
STARLINK-1122,44949,53.1526,0.0007131,15.55705437,395.2692232017753,404.9363487845594,1 44949U 20001AM  26169.47829609  .00052931  00000+0  75688-3 0  9998,2 44949  53.1526 202.7388 0007131   8.4965 351.6166 15.55705437355786
STARLINK-1080,44961,53.0441,0.0003146,15.68627893,360.70439975626323,364.94581311363254,1 44961U 20001AZ  26169.26073294  .00043728  00000+0  38033-3 0  9997,2 44961  53.0441 160.4230 0003146  57.6381 302.4939 15.68627893356349
STARLINK-1090,44968,53.1473,0.00059,15.51825273,407.3910735051704,415.40272350540727,1 44968U 20001BG  26169.94204979  .00049740  00000+0  81980-3 0  9994,2 44968  53.1473 188.5248 0005900  17.9996 342.1222 15.51825273356028
STARLINK-1132,45044,53.1505,0.000374,15.57177829,393.29586526127423,398.3627920751187,1 45044U 20006A   26169.62345903  .00066434  00000+0  89700-3 0  9990,2 45044  53.1505 130.6880 0003740  61.3054 298.8334 15.57177829352589
STARLINK-1131,45047,53.156,0.0005764,15.53662717,402.1323328147928,409.95313521216303,1 45047U 20006D   26169.40387382  .00053770  00000+0  82853-3 0  9997,2 45047  53.1560 164.8488 0005764  34.3011 325.8371 15.53662717352085
STARLINK-1134,45048,53.0228,0.0007812,15.60850216,379.9163931409603,390.48343073217075,1 45048U 20006E   26169.14842861  .00103283  00000+0  12036-2 0  9997,2 45048  53.0228 115.2870 0007812 117.5220 242.6587 15.60850216352731
STARLINK-1156,45054,53.1565,0.0005038,15.3589871,454.80820785908145,461.6965537992046,1 45054U 20006L   26169.73521721  .00033570  00000+0  95342-3 0  9991,2 45054  53.1565 170.2354 0005038  27.1802 332.9464 15.35898710352034
STARLINK-1166,45060,53.0441,0.0005834,15.61302879,379.9476338535296,387.8375699930548,1 45060U 20006S   26169.91666387  .00076503  00000+0  88110-3 0  9994,2 45060  53.0441 144.5211 0005834  46.8621 313.2879 15.61302879352396
STARLINK-1169,45061,53.1528,0.0006399,15.39330308,443.72035049824535,452.4565538319257,1 45061U 20006T   26169.29083795  .00039622  00000+0  10043-2 0  9992,2 45061  53.1528 170.6427 0006399   5.0673 355.0396 15.39330308351990
STARLINK-1171,45062,53.0398,0.0003097,15.75922527,339.9260756754893,344.08853305761477,1 45062U 20006U   26169.12849826  .00065298  00000+0  41419-3 0  9990,2 45062  53.0398 113.1454 0003097  49.6223 310.5066 15.75922527352760
STARLINK-1133,45064,53.1552,0.0005355,15.35855971,454.71825213426837,462.04016099149794,1 45064U 20006W   26169.38130837  .00036424  00000+0  10345-2 0  9997,2 45064  53.1552 148.6758 0005355  39.9610 320.1786 15.35855971352317
STARLINK-1167,45071,53.155,0.0003701,15.38427444,448.2315755236741,453.2863243058018,1 45071U 20006AD  26169.36682617  .00035300  00000+0  92352-3 0  9992,2 45071  53.1550 147.6254 0003701  12.4078 347.7017 15.38427444352326
STARLINK-1168,45072,53.1563,0.0004968,15.36149833,454.1113572462127,460.9032534279959,1 45072U 20006AE  26169.22956492  .00036731  00000+0  10334-2 0  9991,2 45072  53.1563 149.5697 0004968  33.9727 326.1594 15.36149833352285
STARLINK-1172,45074,53.1543,0.0005072,15.39356719,444.5481508685025,451.4725947634861,1 45074U 20006AG  26169.31761000  .00040820  00000+0  10336-2 0  9998,2 45074  53.1543 147.1128 0005072  17.4589 342.6590 15.39356719352328
STARLINK-1153,45080,53.157,0.0005678,15.38468492,446.7601030141104,454.5148593149206,1 45080U 20006AN  26169.34939626  .00037364  00000+0  97508-3 0  9995,2 45080  53.1570 147.6134 0005678   4.1856 355.9195 15.38468492352328
STARLINK-1151,45081,53.0468,0.0001889,15.89911062,301.27000966952164,303.79396641320363,1 45081U 20006AP  26170.00002315  .00115467  00000+0  37559-3 0  9998,2 45081  53.0468  96.3212 0001889 182.7994 121.4080 15.89911062  5952
STARLINK-1185,45087,53.1574,0.0005574,15.47121072,421.3606895542607,428.944997071585,1 45087U 20006AV  26169.17363898  .00049615  00000+0  96480-3 0  9995,2 45087  53.1574 127.9269 0005574  52.4144 307.7370 15.47121072352588
STARLINK-1183,45088,53.1556,0.0005094,15.3584424,454.93147962804323,461.8965578059133,1 45088U 20006AW  26169.60119136  .00030611  00000+0  87218-3 0  9993,2 45088  53.1556 132.4631 0005094  56.1731 303.9757 15.35844240352553
STARLINK-1152,45096,53.0318,0.0003882,15.50255848,413.3409750902583,418.61592632618795,1 45096U 20006BE  26169.93808916  .00053001  00000+0  92299-3 0  9992,2 45096  53.0318  84.5659 0003882 118.4008 241.7392 15.50255848353233
STARLINK-1184,45098,53.0524,0.0005306,15.14778762,517.9892742798502,525.3113285641202,1 45098U 20006BG  26169.62884407  .00019618  00000+0  10580-2 0  9997,2 45098  53.0524 147.9107 0005306  64.0575 296.0964 15.14778762352315
STARLINK-1193,45100,53.0461,0.0002969,15.68907954,360.0217232999621,364.02403023478655,1 45100U 20006BJ  26169.03149277  .00038843  00000+0  33475-3 0  9995,2 45100  53.0461  99.3563 0002969  29.2112 330.9069 15.68907954352946
STARLINK-1143,45179,53.0314,0.0008922,15.93763184,285.8119877791687,297.71375711155997,1 45179U 20012B   26170.00002315  .00208048  27675-4  56476-3 0  9992,2 45179  53.0314 183.7375 0008922  28.5990 129.6142 15.93763184  5920
STARLINK-1202,45183,53.1552,0.0002114,15.35683268,457.44640566335784,460.3371014203558,1 45183U 20012F   26169.61293273  .00034949  00000+0  99906-3 0  9997,2 45183  53.1552 289.1749 0002114 294.4113  65.6669 15.35683268350425
STARLINK-1216,45185,53.1572,0.0002132,15.3605243,456.33885246212776,459.2536944099202,1 45185U 20012H   26169.71989704  .00038846  00000+0  10957-2 0  9999,2 45185  53.1572 288.5083 0002132 290.8989  69.1785 15.36052430350389
STARLINK-1225,45187,53.1568,0.0002493,15.36045839,456.11162519604295,459.5200312762008,1 45187U 20012K   26169.32802640  .00034180  00000+0  96614-3 0  9993,2 45187  53.1568 290.8063 0002493 299.3087  60.7667 15.36045839350362
STARLINK-1230,45189,53.157,0.0002298,15.3589066,456.7052605619192,459.8472761000439,1 45189U 20012M   26169.60044699  .00034885  00000+0  99068-3 0  9996,2 45189  53.1570 289.6119 0002298 296.3888  63.6879 15.35890660347636
